{"type": "FeatureCollection", "features": [ {"type": "Feature", "properties": {"norad_id": 33867, "name": "IRIDIUM 33 DEB", "group": "iridium-33-debris", "lat": -75.89046417451185, "lon": -22.868389419190606, "alt_km": 398.6089403591859, "timestamp": "2025-12-09T11:33:55.185624+00:00", "meta": {"OBJECT_NAME": "IRIDIUM 33 DEB", "OBJECT_ID": "1997-051AL", "EPOCH": "2025-12-09T01:07:32.630880", "MEAN_MOTION": 15.61194755, "ECCENTRICITY": 0.0013073, "INCLINATION": 86.3629, "RA_OF_ASC_NODE": 352.0144, "ARG_OF_PERICENTER": 91.4766, "MEAN_ANOMALY": 268.7997, "EPHEMERIS_TYPE": 0, "CLASSIFICATION_TYPE": "U", "NORAD_CAT_ID": 33867, "ELEMENT_SET_NO": 999, "REV_AT_EPOCH": 89453, "BSTAR": 0.0073525, "MEAN_MOTION_DOT": 0.00674938, "MEAN_MOTION_DDOT": 0}, "tle": {"line1": "1 33867U 97051AL  25343.04690545  .00674938  00000+0  73525-2 0  9999", "line2": "2 33867  86.3629 352.0144 0013073  91.4766 268.7997 15.61194755894530"}}, "geometry": {"type": "Point", "coordinates": [-22.868389419190606, -75.89046417451185]}}, {"type": "Feature", "properties": {"norad_id": 33870, "name": "IRIDIUM 33 DEB", "group": "iridium-33-debris", "lat": -59.73454259535464, "lon": 53.41995411037733, "alt_km": 751.967718062856, "timestamp": "2025-12-09T11:33:55.185636+00:00", "meta": {"OBJECT_NAME": "IRIDIUM 33 DEB", "OBJECT_ID": "1997-051AP", "EPOCH": "2025-12-08T23:22:35.143104", "MEAN_MOTION": 14.45818414, "ECCENTRICITY": 0.0021059, "INCLINATION": 86.3747, "RA_OF_ASC_NODE": 59.8748, "ARG_OF_PERICENTER": 190.5386, "MEAN_ANOMALY": 347.6141, "EPHEMERIS_TYPE": 0, "CLASSIFICATION_TYPE": "U", "NORAD_CAT_ID": 33870, "ELEMENT_SET_NO": 999, "REV_AT_EPOCH": 88082, "BSTAR": 0.0010489, "MEAN_MOTION_DOT": 3.75e-05, "MEAN_MOTION_DDOT": 0}, "tle": {"line1": "1 33870U 97051AP  25342.97401786  .00003750  00000+0  10489-2 0  9999", "line2": "2 33870  86.3747  59.8748 0021059 190.5386 347.6141 14.45818414880820"}}, "geometry": {"type": "Point", "coordinates": [53.41995411037733, -59.73454259535464]}}, {"type": "Feature", "properties": {"norad_id": 33881, "name": "IRIDIUM 33 DEB", "group": "iridium-33-debris", "lat": 42.37728697763061, "lon": 111.46291251006954, "alt_km": 735.6663065504854, "timestamp": "2025-12-09T11:33:55.185646+00:00", "meta": {"OBJECT_NAME": "IRIDIUM 33 DEB", "OBJECT_ID": "1997-051BA", "EPOCH": "2025-12-08T21:05:51.876096", "MEAN_MOTION": 14.5645843, "ECCENTRICITY": 0.0061428, "INCLINATION": 86.3871, "RA_OF_ASC_NODE": 108.42, "ARG_OF_PERICENTER": 187.1593, "MEAN_ANOMALY": 297.143, "EPHEMERIS_TYPE": 0, "CLASSIFICATION_TYPE": "U", "NORAD_CAT_ID": 33881, "ELEMENT_SET_NO": 999, "REV_AT_EPOCH": 87444, "BSTAR": 0.002467, "MEAN_MOTION_DOT": 0.00011273, "MEAN_MOTION_DDOT": 0}, "tle": {"line1": "1 33881U 97051BA  25342.87907264  .00011273  00000+0  24670-2 0  9998", "line2": "2 33881  86.3871 108.4200 0061428 187.1593 297.1430 14.56458430874441"}}, "geometry": {"type": "Point", "coordinates": [111.46291251006954, 42.37728697763061]}}, {"type": "Feature", "properties": {"norad_id": 33884, "name": "IRIDIUM 33 DEB", "group": "iridium-33-debris", "lat": 74.00248979343814, "lon": 178.49327204524235, "alt_km": 635.2918687930769, "timestamp": "2025-12-09T11:33:55.185657+00:00", "meta": {"OBJECT_NAME": "IRIDIUM 33 DEB", "OBJECT_ID": "1997-051BD", "EPOCH": "2025-12-09T01:28:11.764128", "MEAN_MOTION": 14.77315007, "ECCENTRICITY": 0.0010092, "INCLINATION": 86.3693, "RA_OF_ASC_NODE": 11.4785, "ARG_OF_PERICENTER": 337.7014, "MEAN_ANOMALY": 52.1212, "EPHEMERIS_TYPE": 0, "CLASSIFICATION_TYPE": "U", "NORAD_CAT_ID": 33884, "ELEMENT_SET_NO": 999, "REV_AT_EPOCH": 88793, "BSTAR": 0.0015599, "MEAN_MOTION_DOT": 0.00011112, "MEAN_MOTION_DDOT": 0}, "tle": {"line1": "1 33884U 97051BD  25343.06124727  .00011112  00000+0  15599-2 0  9990", "line2": "2 33884  86.3693  11.4785 0010092 337.7014  52.1212 14.77315007887939"}}, "geometry": {"type": "Point", "coordinates": [178.49327204524235, 74.00248979343814]}}, {"type": "Feature", "properties": {"norad_id": 33886, "name": "IRIDIUM 33 DEB", "group": "iridium-33-debris", "lat": 24.7874661535444, "lon": -113.07399244706761, "alt_km": 772.374911419859, "timestamp": "2025-12-09T11:33:55.185668+00:00", "meta": {"OBJECT_NAME": "IRIDIUM 33 DEB", "OBJECT_ID": "1997-051BF", "EPOCH": "2025-12-09T04:26:46.394016", "MEAN_MOTION": 14.36044861, "ECCENTRICITY": 0.001213, "INCLINATION": 86.383, "RA_OF_ASC_NODE": 68.7247, "ARG_OF_PERICENTER": 255.409, "MEAN_ANOMALY": 167.2504, "EPHEMERIS_TYPE": 0, "CLASSIFICATION_TYPE": "U", "NORAD_CAT_ID": 33886, "ELEMENT_SET_NO": 999, "REV_AT_EPOCH": 88001, "BSTAR": 0.00031056, "MEAN_MOTION_DOT": 9.23e-06, "MEAN_MOTION_DDOT": 0}, "tle": {"line1": "1 33886U 97051BF  25343.18525919  .00000923  00000+0  31056-3 0  9998", "line2": "2 33886  86.3830  68.7247 0012130 255.4090 167.2504 14.36044861880013"}}, "geometry": {"type": "Point", "coordinates": [-113.07399244706761, 24.7874661535444]}}, {"type": "Feature", "properties": {"norad_id": 33887, "name": "IRIDIUM 33 DEB", "group": "iridium-33-debris", "lat": 77.17156698820587, "lon": 21.28378046507717, "alt_km": 763.4240058235418, "timestamp": "2025-12-09T11:33:55.185679+00:00", "meta": {"OBJECT_NAME": "IRIDIUM 33 DEB", "OBJECT_ID": "1997-051BG", "EPOCH": "2025-12-09T03:09:21.273408", "MEAN_MOTION": 14.37215839, "ECCENTRICITY": 0.0004187, "INCLINATION": 86.3047, "RA_OF_ASC_NODE": 4.9474, "ARG_OF_PERICENTER": 243.0697, "MEAN_ANOMALY": 182.8985, "EPHEMERIS_TYPE": 0, "CLASSIFICATION_TYPE": "U", "NORAD_CAT_ID": 33887, "ELEMENT_SET_NO": 999, "REV_AT_EPOCH": 88113, "BSTAR": 0.00021375, "MEAN_MOTION_DOT": 6.56e-06, "MEAN_MOTION_DDOT": 0}, "tle": {"line1": "1 33887U 97051BG  25343.13149622  .00000656  00000+0  21375-3 0  9993", "line2": "2 33887  86.3047   4.9474 0004187 243.0697 182.8985 14.37215839881133"}}, "geometry": {"type": "Point", "coordinates": [21.28378046507717, 77.17156698820587]}}, {"type": "Feature", "properties": {"norad_id": 33953, "name": "IRIDIUM 33 DEB", "group": "iridium-33-debris", "lat": 80.6740292212944, "lon": 77.8412249382232, "alt_km": 689.9613489105732, "timestamp": "2025-12-09T11:33:55.185690+00:00", "meta": {"OBJECT_NAME": "IRIDIUM 33 DEB", "OBJECT_ID": "1997-051BN", "EPOCH": "2025-12-09T04:52:48.423072", "MEAN_MOTION": 14.55266937, "ECCENTRICITY": 0.001847, "INCLINATION": 86.384, "RA_OF_ASC_NODE": 55.3141, "ARG_OF_PERICENTER": 113.5745, "MEAN_ANOMALY": 309.5735, "EPHEMERIS_TYPE": 0, "CLASSIFICATION_TYPE": "U", "NORAD_CAT_ID": 33953, "ELEMENT_SET_NO": 999, "REV_AT_EPOCH": 88252, "BSTAR": 0.0014361, "MEAN_MOTION_DOT": 6.253e-05, "MEAN_MOTION_DDOT": 0}, "tle": {"line1": "1 33953U 97051BN  25343.20333823  .00006253  00000+0  14361-2 0  9998", "line2": "2 33953  86.3840  55.3141 0018470 113.5745 309.5735 14.55266937882524"}}, "geometry": {"type": "Point", "coordinates": [77.8412249382232, 80.6740292212944]}}, {"type": "Feature", "properties": {"norad_id": 33960, "name": "IRIDIUM 33 DEB", "group": "iridium-33-debris", "lat": -76.79177697442901, "lon": 127.26110728727706, "alt_km": 626.3285478621519, "timestamp": "2025-12-09T11:33:55.185700+00:00", "meta": {"OBJECT_NAME": "IRIDIUM 33 DEB", "OBJECT_ID": "1997-051BV", "EPOCH": "2025-12-08T21:44:18.324096", "MEAN_MOTION": 14.84866979, "ECCENTRICITY": 0.0007308, "INCLINATION": 86.2537, "RA_OF_ASC_NODE": 291.3214, "ARG_OF_PERICENTER": 67.9979, "MEAN_ANOMALY": 351.6449, "EPHEMERIS_TYPE": 0, "CLASSIFICATION_TYPE": "U", "NORAD_CAT_ID": 33960, "ELEMENT_SET_NO": 999, "REV_AT_EPOCH": 88810, "BSTAR": 0.0037228, "MEAN_MOTION_DOT": 0.00031788, "MEAN_MOTION_DDOT": 0}, "tle": {"line1": "1 33960U 97051BV  25342.90576764  .00031788  00000+0  37228-2 0  9993", "line2": "2 33960  86.2537 291.3214 0007308  67.9979 351.6449 14.84866979888100"}}, "geometry": {"type": "Point", "coordinates": [127.26110728727706, -76.79177697442901]}}, {"type": "Feature", "properties": {"norad_id": 33966, "name": "IRIDIUM 33 DEB", "group": "iridium-33-debris", "lat": -84.18743219628509, "lon": 9.126341125051109, "alt_km": 733.2371917917244, "timestamp": "2025-12-09T11:33:55.185711+00:00", "meta": {"OBJECT_NAME": "IRIDIUM 33 DEB", "OBJECT_ID": "1997-051CB", "EPOCH": "2025-12-09T03:49:18.183072", "MEAN_MOTION": 14.49570047, "ECCENTRICITY": 0.0007004, "INCLINATION": 86.3923, "RA_OF_ASC_NODE": 47.5638, "ARG_OF_PERICENTER": 200.3516, "MEAN_ANOMALY": 191.4821, "EPHEMERIS_TYPE": 0, "CLASSIFICATION_TYPE": "U", "NORAD_CAT_ID": 33966, "ELEMENT_SET_NO": 999, "REV_AT_EPOCH": 88390, "BSTAR": 0.00069086, "MEAN_MOTION_DOT": 2.67e-05, "MEAN_MOTION_DDOT": 0}, "tle": {"line1": "1 33966U 97051CB  25343.15923823  .00002670  00000+0  69086-3 0  9995", "line2": "2 33966  86.3923  47.5638 0007004 200.3516 191.4821 14.49570047883906"}}, "geometry": {"type": "Point", "coordinates": [9.126341125051109, -84.18743219628509]}}, {"type": "Feature", "properties": {"norad_id": 34071, "name": "IRIDIUM 33 DEB", "group": "iridium-33-debris", "lat": -17.76547562758159, "lon": 18.071010674110546, "alt_km": 737.3578039656868, "timestamp": "2025-12-09T11:33:55.185722+00:00", "meta": {"OBJECT_NAME": "IRIDIUM 33 DEB", "OBJECT_ID": "1997-051CE", "EPOCH": "2025-12-09T03:21:46.783584", "MEAN_MOTION": 14.49438842, "ECCENTRICITY": 0.0009805, "INCLINATION": 86.3456, "RA_OF_ASC_NODE": 19.3928, "ARG_OF_PERICENTER": 117.2084, "MEAN_ANOMALY": 243.0121, "EPHEMERIS_TYPE": 0, "CLASSIFICATION_TYPE": "U", "NORAD_CAT_ID": 34071, "ELEMENT_SET_NO": 999, "REV_AT_EPOCH": 88282, "BSTAR": 0.00075639, "MEAN_MOTION_DOT": 2.915e-05, "MEAN_MOTION_DDOT": 0}, "tle": {"line1": "1 34071U 97051CE  25343.14012481  .00002915  00000+0  75639-3 0  9994", "line2": "2 34071  86.3456  19.3928 0009805 117.2084 243.0121 14.49438842882824"}}, "geometry": {"type": "Point", "coordinates": [18.071010674110546, -17.76547562758159]}}]}